{"type": "FeatureCollection", "features": [{"type": "Feature", "geometry": {"coordinates": [[[2.38009614642777, 48.84859802357731], [2.380316103531837, 48.8483225816396], [2.3803845671853794, 48.84823676449599], [2.3805408243261894, 48.848043990080605], [2.3805400804545607, 48.84797186870819], [2.380450444608101, 48.847841777749316], [2.3804095148741418, 48.847781811699775], [2.3796481117853827, 48.84667671416852], [2.3793528196557987, 48.84664427175512], [2.3791967924300725, 48.846625895094725], [2.3788828308397916, 48.84659049108718], [2.378605579804652, 48.846785826142074], [2.378650968311247, 48.84680451397933], [2.3784498308052457, 48.84693947979416], [2.378414116213213, 48.84692087811878], [2.3778504107480725, 48.84731807264594], [2.3777866135052617, 48.84736318984217], [2.377669713881392, 48.84743384321649], [2.3772191076971882, 48.84770619780466], [2.377049275358329, 48.84780796613253], [2.376724730009847, 48.84800574129532], [2.376722421025974, 48.848014105867136], [2.3765967466973965, 48.8480824856494], [2.3762045454901757, 48.84831708708866], [2.3761854969776146, 48.848462616827305], [2.3770167582090416, 48.84966079690625], [2.377111886430129, 48.84980156630396], [2.3777833405263187, 48.85077555740241], [2.3778216020603504, 48.85078717816107], [2.378416787934178, 48.850643761603735], [2.378549573858181, 48.85053393339892], [2.38009614642777, 48.84859802357731]]], "type": "Polygon"}, "properties": {"nom": "Aligre", "arrdt": "12e", "type_secteurs": "Toute l’année", "jours": "01", "horaires_annee": "de 10h à 14h", "periode_estivale": null, "horaires_ete": null, "autorises": "05", "superficie": 65446, "lineaire_voie": 1384, "dates_specifiques": null, "geo_point_2d": {"lon": 2.378415326238334, "lat": 48.84856240029599}, "url": null}}, {"type": "Feature", "geometry": {"coordinates": [[[2.3328284353412023, 48.84453981529653], [2.333005700156211, 48.84447345406194], [2.3346220704815472, 48.84443319599572], [2.3365743349182333, 48.84438510754385], [2.336573789627707, 48.84440300273322], [2.336601720347472, 48.84443330874832], [2.336617252241713, 48.84444544903157], [2.336634419174537, 48.84445642021417], [2.336673250956725, 48.84447494475176], [2.3367168499489077, 48.844488164287036], [2.3367389216256895, 48.844492660257224], [2.3373039793665162, 48.84447790067215], [2.3373193352157497, 48.84447753785133], [2.3373577646721566, 48.84447799894148], [2.337390601770308, 48.8444744017003], [2.3374262377964286, 48.84446436432867], [2.337466764068421, 48.84444265692192], [2.337487065312134, 48.84442296269202], [2.337502188413465, 48.8443948154553], [2.33750518528223, 48.84437323206381], [2.3375039594046223, 48.84436226114765], [2.3376550587273095, 48.84435911273056], [2.338829784292296, 48.844076812070554], [2.3387379479004573, 48.84390891870673], [2.3384935065352583, 48.8434672895964], [2.3383922703996225, 48.84328662778958], [2.3380297072462546, 48.84262620615116], [2.337897682083431, 48.84238610081096], [2.3376160618365094, 48.841873787450425], [2.3372760938045825, 48.84125624980147], [2.3371338849321996, 48.840998491686], [2.3371218722168616, 48.840980869511355], [2.337107526227958, 48.84096394040717], [2.3370909984623243, 48.84094789857565], [2.3370684652077545, 48.840929995950354], [2.337051921378271, 48.840918967985196], [2.337038768134346, 48.84091121181259], [2.3370250203887983, 48.840903919114226], [2.3370107119164603, 48.84089711256124], [2.3369701251551844, 48.84088146979193], [2.336925812190787, 48.84086923293608], [2.33690254189435, 48.84086461071761], [2.336878838164634, 48.84086107162586], [2.3368608475016486, 48.840859138089414], [2.336848780742514, 48.840858195214466], [2.3368168855354874, 48.840858404222494], [2.3367897444008907, 48.840859986828626], [2.3367626107868387, 48.840861620734074], [2.3367530946067205, 48.840861111095016], [2.336729932298565, 48.840864385869274], [2.336674030370635, 48.840877155370876], [2.3366322602758594, 48.84089186939753], [2.3365807123655875, 48.84091806264423], [2.336554995186953, 48.84093643794895], [2.3365431746875562, 48.840946332861535], [2.336518757416517, 48.84097090929633], [2.336496651011924, 48.84100115465123], [2.3364230552616254, 48.84119166906213], [2.3361228634604263, 48.841149877398315], [2.3360829443906432, 48.84117541637017], [2.3331287523809694, 48.84422993425905], [2.3328284353412023, 48.84453981529653]]], "type": "Polygon"}, "properties": {"nom": "Luxembourg", "arrdt": "6e", "type_secteurs": "Estival", "jours": "01", "horaires_annee": null, "periode_estivale": "dernier dimanche de mars à fin novembre", "horaires_ete": "de 10h à 18h", "autorises": "01", "superficie": 95671, "lineaire_voie": 1486, "dates_specifiques": null, "geo_point_2d": {"lon": 2.336189388940233, "lat": 48.843114519532485}, "url": "https://cdn.paris.fr/paris/2019/07/24/54248d9847d3c85bc72e0ff2eb7e9c24.pdf"}}, {"type": "Feature", "geometry": {"coordinates": [[[2.3202192871014624, 48.890575928014634], [2.3207572388913866, 48.89026225500022], [2.319546813360101, 48.88900012042713], [2.318681505933543, 48.88946132694506], [2.3200803294036696, 48.89050900259629], [2.3202192871014624, 48.890575928014634]]], "type": "Polygon"}, "properties": {"nom": "Rue des Moines (marché Brochant)", "arrdt": "17e", "type_secteurs": "Toute l’année", "jours": "01", "horaires_annee": "de 10h à 13h", "periode_estivale": null, "horaires_ete": null, "autorises": "02", "superficie": 11351, "lineaire_voie": 539, "dates_specifiques": null, "geo_point_2d": {"lon": 2.3197489309624766, "lat": 48.88979002108764}, "url": null}}, {"type": "Feature", "geometry": {"coordinates": [[[2.378455904256405, 48.858588992351], [2.378495699952673, 48.85858789858549], [2.379100511698795, 48.858227245067546], [2.379538782372295, 48.857558200248796], [2.3794965972309168, 48.857472514678435], [2.379110129307481, 48.85670809653795], [2.3787030093163257, 48.85600645363517], [2.3760604915666814, 48.851444301374535], [2.3759976583598315, 48.851425887708196], [2.3740476054430677, 48.85189920485491], [2.373751821462927, 48.85197592058932], [2.3723430818210955, 48.85238041565127], [2.372093478477693, 48.85245408148728], [2.3718626972635954, 48.852530385385236], [2.3716610667267335, 48.852618623440016], [2.3714848744250228, 48.85270592454758], [2.3712475667456867, 48.85283355319144], [2.3710614855883287, 48.852933506853255], [2.370873512554094, 48.85304798380679], [2.370658366442659, 48.853183446020886], [2.370451454831722, 48.85331372232943], [2.3699198563847848, 48.85372970386773], [2.3698482731671873, 48.85387648693965], [2.369881934320492, 48.85387908436309], [2.370394401735165, 48.8550052749216], [2.3704552766012754, 48.855146263557], [2.370567595912168, 48.85538831477128], [2.3706123162507353, 48.85549925913736], [2.3709412223417035, 48.85621213263471], [2.3710508617767045, 48.85645210684254], [2.3712809708123888, 48.85696379665761], [2.371345038839251, 48.85710372212538], [2.3717560776280417, 48.85801149428017], [2.371801109834772, 48.858035473483795], [2.371893697551344, 48.85806814177422], [2.372108565079605, 48.858142795593864], [2.3735018022722953, 48.85861900429644], [2.375820813477596, 48.85938001255342], [2.3759675658792343, 48.85942659872415], [2.3766445631340103, 48.859635668278244], [2.376750819105846, 48.85962495650283], [2.3783279984431815, 48.8586866346804], [2.378455904256405, 48.858588992351]]], "type": "Polygon"}, "properties": {"nom": "Roquette", "arrdt": "11e", "type_secteurs": "Toute l’année", "jours": "01", "horaires_annee": "de 10h à 18h", "periode_estivale": "avril-septembre", "horaires_ete": "de 10h à 20h", "autorises": "05", "superficie": 297077, "lineaire_voie": 8029, "dates_specifiques": null, "geo_point_2d": {"lon": 2.3747380117598036, "lat": 48.855611920362065}, "url": "https://cdn.paris.fr/paris/2020/01/29/2a99966b31b0f85137e5e2c120144430.pdf"}}, {"type": "Feature", "geometry": {"coordinates": [[[2.3651648401412584, 48.881029885178464], [2.369860873323068, 48.87844638353597], [2.3698725150069255, 48.87840952274684], [2.3697835122641107, 48.87828210905028], [2.3697337630189916, 48.87818786425478], [2.3697168740531582, 48.87806962468962], [2.3697432165440855, 48.87791133342724], [2.369793285548588, 48.877810900581494], [2.3698593612434355, 48.8777333761195], [2.3699234336707518, 48.877653156565664], [2.3685279903787064, 48.87623202071943], [2.368218126843757, 48.87593500856098], [2.3674958822410788, 48.875397034128085], [2.366906100984812, 48.87502066643485], [2.366279987312011, 48.87461993638826], [2.364804120290192, 48.87369107103766], [2.3642430355535677, 48.87330141551616], [2.364138350184845, 48.873206875204495], [2.3634305416329955, 48.872749305140914], [2.363396804486097, 48.872761880119214], [2.3634859041662177, 48.87304900588214], [2.3633885587544645, 48.87318677831434], [2.361693383219239, 48.87320082512387], [2.361666399632739, 48.87324364524795], [2.362656435788913, 48.87419529318758], [2.3626347030479824, 48.87430795868701], [2.362579488102722, 48.874329146218095], [2.3615445994517827, 48.87456798954654], [2.361401716489289, 48.874600793291656], [2.361099537601717, 48.87467705253724], [2.3609728537624046, 48.8747166557689], [2.3608543444147836, 48.87475361619702], [2.360572187159094, 48.87485683427054], [2.3601103589644343, 48.87500474074819], [2.359725937013931, 48.8751476886551], [2.3597164748936783, 48.875255048364004], [2.3606139632260597, 48.87576467277777], [2.3624768728230086, 48.876393559178986], [2.362290763196301, 48.87663155512303], [2.36111491896968, 48.876243980373715], [2.3611007174721665, 48.87624019032881], [2.3609520003275364, 48.87633338055613], [2.361723324150727, 48.87763904557377], [2.361838981397591, 48.87766919987113], [2.3620393816374246, 48.877594410139714], [2.3620654558755585, 48.877626100395105], [2.3639220369924288, 48.87694654253857], [2.364035101078384, 48.87702233022458], [2.364923946000485, 48.877982605510084], [2.365012342910394, 48.8780784000745], [2.3645437084231657, 48.878449162447204], [2.3643082229579355, 48.87856337840064], [2.364057059067834, 48.87871107547242], [2.363820005941007, 48.8788326656386], [2.363506009058012, 48.879000070126956], [2.3631591641506917, 48.87919012318522], [2.3631087899926912, 48.879231954723856], [2.363063352626756, 48.8792854174823], [2.3631540630199264, 48.87935840148294], [2.36360933756708, 48.87974111559441], [2.3641412464607763, 48.88018331100502], [2.3651648401412584, 48.881029885178464]]], "type": "Polygon"}, "properties": {"nom": "Canal Saint-Martin hiver", "arrdt": "10", "type_secteurs": "Toute l’année", "jours": "01", "horaires_annee": "10h à 18h", "periode_estivale": "1er dimanche d'avril au dernier dimanche de sept.", "horaires_ete": "10h à 20h", "autorises": "05", "superficie": null, "lineaire_voie": 4764, "dates_specifiques": null, "geo_point_2d": {"lon": 2.3651711477108557, "lat": 48.876846250372964}, "url": null}}, {"type": "Feature", "geometry": {"coordinates": [[[2.3253501791000097, 48.823459801546704], [2.323229416082285, 48.82392044597584], [2.3196197266397225, 48.82472169144484], [2.3185655588332623, 48.824965430725214], [2.3210241574888215, 48.827523633229156], [2.322156711826509, 48.82863106354541], [2.322661722052432, 48.82920591014228], [2.3263068067677497, 48.827889181158916], [2.326324602238815, 48.827771124874836], [2.3264268912392465, 48.82740917475775], [2.325824525160717, 48.825136540733254], [2.3253501791000097, 48.823459801546704]]], "type": "Polygon"}, "properties": {"nom": "Jean Moulin", "arrdt": "14", "type_secteurs": "Toute l’année", "jours": "05", "horaires_annee": "10h à 18h", "periode_estivale": null, "horaires_ete": null, "autorises": "05", "superficie": null, "lineaire_voie": 2922, "dates_specifiques": null, "geo_point_2d": {"lon": 2.3231060288485033, "lat": 48.826194235039566}, "url": null}}, {"type": "Feature", "geometry": {"coordinates": [[[2.341640463815061, 48.87663815949512], [2.3416401608524184, 48.876638289131975], [2.344777035311412, 48.87814231888626], [2.3450759535233927, 48.87824800844404], [2.3450921873826878, 48.87825212537227], [2.3451155521199896, 48.87825560950471], [2.3451420215339485, 48.87825508249777], [2.345174621580124, 48.87825257630924], [2.3464321750302775, 48.877939880795495], [2.3466884715800074, 48.87787347714325], [2.34710205884154, 48.87776295337499], [2.346835051881261, 48.87746611850337], [2.346596657384998, 48.87740372844087], [2.3466320768920124, 48.87733880452422], [2.3467723672643226, 48.87735165358788], [2.3467978443720248, 48.877349107191684], [2.346822345121272, 48.87734319914534], [2.346849965826066, 48.87733193728903], [2.346871531798801, 48.87731661517142], [2.3468880166837294, 48.87730059352581], [2.346890922190713, 48.87729657496128], [2.347106105111492, 48.87693725301525], [2.3471299924600215, 48.876899118381786], [2.347139446086699, 48.876875673908835], [2.347138722157364, 48.876852173930054], [2.3471278388683525, 48.876827276736385], [2.3471057189199027, 48.87680567367718], [2.3470733807344732, 48.87678737209975], [2.346261854588836, 48.876573493286166], [2.3462344448183168, 48.87656797276606], [2.346205957628626, 48.87656714628263], [2.346186588732538, 48.876569725913825], [2.346167193194412, 48.87657431900854], [2.3461457213846004, 48.87658225707965], [2.346131380192154, 48.87658956319104], [2.3461139372228588, 48.87660088048165], [2.3461087295756755, 48.8766070106854], [2.346089047471294, 48.87663442643691], [2.34604745518781, 48.87670468734605], [2.3459933968854063, 48.876795018948954], [2.3459159826428846, 48.87688119568597], [2.345812397655778, 48.876863175366], [2.3459328874843823, 48.87666183403484], [2.345894704640686, 48.87662268957699], [2.3445077882284577, 48.876599662618936], [2.3442851357973997, 48.87656371719148], [2.3442780629370135, 48.87655965122421], [2.3439603499662947, 48.876573350294336], [2.3439642518562978, 48.8765867978603], [2.343485777607775, 48.87659693004051], [2.3431365837298546, 48.876605084340454], [2.342925073486111, 48.87659049738577], [2.342245478403917, 48.87656931091871], [2.341658917301177, 48.876595624365656], [2.341640463815061, 48.87663815949512]]], "type": "Polygon"}, "properties": {"nom": "Marguerite de Rochechouart", "arrdt": "9", "type_secteurs": "Toute l’année", "jours": "01", "horaires_annee": "de 10h à 18h", "periode_estivale": null, "horaires_ete": null, "autorises": "05", "superficie": null, "lineaire_voie": 550, "dates_specifiques": null, "geo_point_2d": {"lon": 2.344857827418627, "lat": 48.87724209833766}, "url": null}}, {"type": "Feature", "geometry": {"coordinates": [[[2.3450865540633212, 48.88932973030395], [2.346066952263696, 48.88944871463792], [2.3461029541916907, 48.88943531345379], [2.3463664742404307, 48.88897630044939], [2.346822612116866, 48.88817059887265], [2.346957297093897, 48.887932008462755], [2.3470284551383394, 48.887809430766545], [2.3475059737913395, 48.88696343748229], [2.3475497204239204, 48.886836995780314], [2.3473208103353898, 48.88575168270283], [2.3470955953777133, 48.884680756790424], [2.346940126303725, 48.88390253868843], [2.346885393352365, 48.883626826749854], [2.346825253167057, 48.883595266746084], [2.3456863682656155, 48.88337342385197], [2.344360954072533, 48.883114981089705], [2.341190106163793, 48.88249339816467], [2.339869102007936, 48.88223562467481], [2.339511314221027, 48.88226099284597], [2.338065438003744, 48.88247199295632], [2.3373193143235387, 48.88259520177629], [2.338009013537926, 48.883748154439964], [2.3379126087922026, 48.883772976185334], [2.337438634090397, 48.883896271228245], [2.3375807213924413, 48.88415103459553], [2.3375252229828596, 48.88417432684825], [2.3370249283890776, 48.88435895100142], [2.33700924623155, 48.884383591241615], [2.336930430560767, 48.88440652386764], [2.336917750244844, 48.884402746603854], [2.336858161396091, 48.884345103171], [2.3368854331691393, 48.88430130845549], [2.3367190767067165, 48.883909225083826], [2.3361858018512898, 48.88294888963328], [2.336160303382263, 48.88294151493339], [2.335484935836587, 48.88314384827089], [2.334461439065998, 48.88345003860506], [2.334435394631215, 48.88346820330521], [2.334011556623698, 48.884189143951964], [2.3339600138849725, 48.88417565326431], [2.333940610501865, 48.884207738654624], [2.333805248348273, 48.88417268238331], [2.3330195720987477, 48.88396735718508], [2.332993935865393, 48.88397967639314], [2.332796759775861, 48.884016000705834], [2.332687675430463, 48.88399549417306], [2.330731436781338, 48.8844512547215], [2.3314533605951135, 48.88575748178045], [2.332344927129161, 48.88633413681307], [2.3325001019144738, 48.88643387150535], [2.3328052699196915, 48.88660267574873], [2.333410264144606, 48.887361861549024], [2.333512395265923, 48.88745269022792], [2.3335087106020533, 48.8874810183289], [2.333789331746336, 48.88783363167007], [2.3348665780136257, 48.889183642921154], [2.3350086733766733, 48.88929974105762], [2.3350982671590703, 48.889342276693775], [2.33522795658569, 48.88938085839862], [2.33537032829663, 48.88940019373138], [2.3355268826667617, 48.889410087332955], [2.335650028157717, 48.88941539317284], [2.3358783133786445, 48.889421060837904], [2.3368315530388792, 48.88946000039949], [2.3427193173367216, 48.889693730511844], [2.343006379631549, 48.88967986538889], [2.3444049617041935, 48.88929533614311], [2.3450865540633212, 48.88932973030395]]], "type": "Polygon"}, "properties": {"nom": "Montmartre", "arrdt": "18e", "type_secteurs": "Toute l’année", "jours": "01", "horaires_annee": "de 11h à 18h", "periode_estivale": "avril-août", "horaires_ete": "de 11h à 19h", "autorises": "03", "superficie": 742509, "lineaire_voie": 17551, "dates_specifiques": null, "geo_point_2d": {"lon": 2.339983173164993, "lat": 48.88613059243823}, "url": "https://cdn.paris.fr/paris/2019/07/24/0df4df8daed3b707daaa04062ee8cf76.pdf"}}, {"type": "Feature", "geometry": {"coordinates": [[[2.32884947654973, 48.83542997459975], [2.330717998879059, 48.8343209132186], [2.3308078665540757, 48.83426752392981], [2.3308273070011527, 48.83424589759085], [2.3308260781973402, 48.834229233461315], [2.330821313442879, 48.83420731430861], [2.33081302359591, 48.8341791886579], [2.330806897010091, 48.83415107510913], [2.3308035429816707, 48.83413154358354], [2.3308051552936755, 48.83411822751862], [2.3308125523732968, 48.834097994376265], [2.3308279659397844, 48.83407666478117], [2.3308445147416914, 48.83405105782905], [2.3308608894301117, 48.834039013320194], [2.3308870693008514, 48.83402131265353], [2.330928415273821, 48.83400155541626], [2.3316622028769287, 48.8337057786738], [2.3316092319683284, 48.83363984383257], [2.33138599790968, 48.833382012566055], [2.331279897648198, 48.83325422033124], [2.330514467771303, 48.83236012443876], [2.3304485405804343, 48.83234591314348], [2.3283667805642225, 48.83298498857013], [2.3283457956538665, 48.83302779238055], [2.328700667360108, 48.8334661717753], [2.3285151661744297, 48.83352303476113], [2.327817682961216, 48.83375193919625], [2.327382570062645, 48.83389363093574], [2.3264141139638057, 48.834209105487986], [2.326222845271312, 48.834279321375135], [2.3241655659722658, 48.83506985057213], [2.323702922437731, 48.83620198612832], [2.3234483038464124, 48.83682185809231], [2.3234330152434977, 48.83685887512087], [2.3234471753922756, 48.83688486605828], [2.323494713053421, 48.83690942151021], [2.3236524433964996, 48.836990464418626], [2.323947748633668, 48.837136988998154], [2.3239895704407116, 48.837139871309226], [2.325096509574368, 48.836769775512316], [2.3252941926792805, 48.836703634975436], [2.325690925944804, 48.836570982889626], [2.3258642192829093, 48.83651335584823], [2.32646624969695, 48.836312242325604], [2.3266395422788757, 48.836254434279056], [2.3270606467827526, 48.836113283576644], [2.327249332828808, 48.83604684275256], [2.3274614493599968, 48.835979413657796], [2.3276867833194665, 48.83589265186876], [2.328323815804591, 48.83565070452007], [2.3288164381132375, 48.83544939099184], [2.32884947654973, 48.83542997459975]]], "type": "Polygon"}, "properties": {"nom": "Daguerre", "arrdt": "14e", "type_secteurs": "Toute l’année", "jours": "01", "horaires_annee": "de 10h à 18h", "periode_estivale": null, "horaires_ete": null, "autorises": "05", "superficie": 128589, "lineaire_voie": 2268, "dates_specifiques": null, "geo_point_2d": {"lon": 2.327500786488048, "lat": 48.83478365288663}, "url": "https://cdn.paris.fr/paris/2019/07/24/b0722b69d42200a65b406426d865b1b6.pdf"}}, {"type": "Feature", "geometry": {"coordinates": [[[2.3542605845061995, 48.86933005074768], [2.349566299554559, 48.87034584114225], [2.349692665573389, 48.87089708843089], [2.34973394711453, 48.87104642952804], [2.3499074835707683, 48.871617771891074], [2.350047349073293, 48.87213079221021], [2.3505130843191755, 48.873817415180675], [2.350970055783032, 48.87528399230668], [2.352495831493378, 48.875001526710605], [2.353470790293201, 48.8747634998849], [2.355393874071323, 48.87435528662886], [2.3555836312634693, 48.87437282193164], [2.3562160658434492, 48.87449137682147], [2.3569710652977363, 48.87464557006909], [2.357108650209167, 48.874542856635145], [2.3571527293503998, 48.87448129367734], [2.3542605845061995, 48.86933005074768]]], "type": "Polygon"}, "properties": {"nom": "Faubourg Saint Denis", "arrdt": "10e", "type_secteurs": "Toute l’année", "jours": "01", "horaires_annee": "de 10h à 18h", "periode_estivale": "avril-septembre", "horaires_ete": "de 10h à 20h", "autorises": "03", "superficie": 233371, "lineaire_voie": 4881, "dates_specifiques": null, "geo_point_2d": {"lon": 2.3530178253230223, "lat": 48.87238465813769}, "url": "https://cdn.paris.fr/paris/2019/07/24/4381a5d34db28dcec9ffd54accd41519.pdf"}}, {"type": "Feature", "geometry": {"coordinates": [[[2.3418778556953854, 48.89486496466151], [2.3423437713663993, 48.895015391483284], [2.3430833810610885, 48.894848444183204], [2.343385879020193, 48.89478934505618], [2.3442300819673063, 48.894567258383276], [2.3442383975804675, 48.89454063905263], [2.3443217058826824, 48.89437777491741], [2.3438141466122655, 48.89287521028605], [2.343775547503636, 48.892866219584015], [2.3436129635729546, 48.89272306559129], [2.3422150761871374, 48.89291594942437], [2.3403493906590787, 48.893173400576806], [2.3403268882621147, 48.8931954341254], [2.340778972556534, 48.89466950915138], [2.340818797822867, 48.89467544266268], [2.3413478005851793, 48.894218319946646], [2.3415733869782187, 48.89427991035375], [2.3418778556953854, 48.89486496466151]]], "type": "Polygon"}, "properties": {"nom": "Poteau", "arrdt": "18e", "type_secteurs": "Toute l’année", "jours": "01", "horaires_annee": "de 10h à 14h", "periode_estivale": null, "horaires_ete": null, "autorises": "03", "superficie": 51640, "lineaire_voie": 636, "dates_specifiques": null, "geo_point_2d": {"lon": 2.3424375211449764, "lat": 48.89383254724514}, "url": "https://cdn.paris.fr/paris/2019/07/24/614da7fde2ed2cc1a807cb2593258d50.pdf"}}, {"type": "Feature", "geometry": {"coordinates": [[[2.405554824074222, 48.83470865767951], [2.4057395675571374, 48.83481856061737], [2.405952896374555, 48.83495049664344], [2.406353871232358, 48.83519092042845], [2.40649562413414, 48.83527776402613], [2.4065358682388776, 48.835288909861966], [2.406577647128265, 48.83529197262461], [2.4066079836118854, 48.835286887933265], [2.407235626685934, 48.835057754689444], [2.407837211507116, 48.83483753043054], [2.4080001420960007, 48.83477361244138], [2.408011478252151, 48.83466420787578], [2.407780384361637, 48.834382275251585], [2.407721136251934, 48.834330582321265], [2.407633178965736, 48.834267801916056], [2.4075544346736217, 48.83421886872008], [2.407254936891559, 48.83405700212301], [2.4067964013113525, 48.833807253416666], [2.406230401941226, 48.83349890733491], [2.405661559333209, 48.83318768884356], [2.4046334298183543, 48.83292952734586], [2.404538539138525, 48.832906211079745], [2.4045062743826584, 48.83289082148596], [2.4044905675636787, 48.832877417383216], [2.4044720217722397, 48.832860192128024], [2.404421523737996, 48.8327371547822], [2.4043791214138874, 48.83266270098634], [2.4043329407708804, 48.832603457314804], [2.4042927671421723, 48.83252330360435], [2.404283060599235, 48.832489465181794], [2.4041776215186266, 48.83237995480029], [2.403877504003273, 48.83237144159764], [2.403827710323824, 48.83237113584944], [2.4037860736863004, 48.832400995908635], [2.403595373905004, 48.832528230877614], [2.403364912140519, 48.832686977033056], [2.4025451903801556, 48.83322023636467], [2.402456033426853, 48.8332750560856], [2.402437331269475, 48.83335125941711], [2.4024695290713995, 48.833382801832165], [2.402850502988828, 48.83354175705877], [2.403554126995784, 48.833791315298], [2.403737921188559, 48.83385743204151], [2.4044285713842806, 48.83410739701037], [2.404650242209847, 48.83420273150527], [2.4048208300465412, 48.83428924495005], [2.405168797021112, 48.834498951251085], [2.4053802108761375, 48.8346089865048], [2.405554824074222, 48.83470865767951]]], "type": "Polygon"}, "properties": {"nom": "Lavigerie / Laperrine", "arrdt": "12", "type_secteurs": "Dates spécifiques", "jours": "03", "horaires_annee": "12h-1h / 12h-23h", "periode_estivale": null, "horaires_ete": null, "autorises": "03", "superficie": null, "lineaire_voie": 972, "dates_specifiques": "Pendant la Foire du Trône", "geo_point_2d": {"lon": 2.4052955201797848, "lat": 48.83385254779386}, "url": null}}, {"type": "Feature", "geometry": {"coordinates": [[[2.3411585761179805, 48.8796685667142], [2.3416672558915472, 48.87954331616231], [2.3425460295721905, 48.87934275739591], [2.3428348997012662, 48.879277169529445], [2.343146892072054, 48.87920885245004], [2.3426832963880093, 48.8783442773601], [2.3426523315009447, 48.87829262134093], [2.342390852123811, 48.87780643760194], [2.342395995177639, 48.87780427957073], [2.342376913961607, 48.87775184515419], [2.3423624864937596, 48.877754793958815], [2.3422078600019316, 48.87724365268315], [2.342157247599269, 48.87706621088785], [2.3418891613770745, 48.87693649033551], [2.34165650451646, 48.8768246872174], [2.341244601339737, 48.87662385599993], [2.3411110194764566, 48.8765955040252], [2.3405660873538543, 48.87662304220333], [2.3403081250009383, 48.87664298823809], [2.3401885576477626, 48.87665108520761], [2.3401852859564256, 48.87663984436079], [2.3401008928896334, 48.87664677171715], [2.3401032117675276, 48.876657023440366], [2.3395337345295, 48.876715762578854], [2.3394100788651113, 48.87676387735252], [2.339123913092625, 48.87692386538025], [2.338121444017274, 48.877935209260244], [2.338274694240584, 48.87809141120163], [2.3383633215215633, 48.87826227197193], [2.3384279584352, 48.87864599129137], [2.3384275496629057, 48.878675487204994], [2.3384235968881986, 48.87870489428407], [2.3384174611687354, 48.87873043385173], [2.338413235621456, 48.878747609372304], [2.3384062822932696, 48.878765595406755], [2.3383870591824985, 48.87879653059789], [2.338349429137656, 48.87883600935547], [2.3383147991934985, 48.87886622535016], [2.338275260357342, 48.87889581254577], [2.3382503101270693, 48.87891056131263], [2.3382006819204513, 48.87893322359592], [2.3381566428651195, 48.87895093984189], [2.3381254208656244, 48.878959213775865], [2.3381274660480815, 48.87896362012991], [2.3370034504033512, 48.87914906123388], [2.3370904378655792, 48.87932558851247], [2.339731679095263, 48.87888202088112], [2.339888596143426, 48.8788563477725], [2.3399441112553236, 48.879055305092], [2.3402372923245793, 48.87969252174311], [2.340323338048029, 48.87987758949367], [2.3411585761179805, 48.8796685667142]]], "type": "Polygon"}, "properties": {"nom": "Martyrs", "arrdt": "9e", "type_secteurs": "Toute l’année", "jours": "11", "horaires_annee": "de 10h à 18h", "periode_estivale": null, "horaires_ete": null, "autorises": "05", "superficie": 50002, "lineaire_voie": 1464, "dates_specifiques": null, "geo_point_2d": {"lon": 2.340554703146403, "lat": 48.87817971329928}, "url": "https://cdn.paris.fr/paris/2019/07/24/16f424ac1c38760bb63b6409f750303d.pdf"}}, {"type": "Feature", "geometry": {"coordinates": [[[2.2965573601841314, 48.87259431823101], [2.2969116217600782, 48.87282501631094], [2.2977212926880384, 48.873339364135965], [2.2983769631508992, 48.873747814360435], [2.2984144525303263, 48.873749714965335], [2.3005084230622677, 48.87307243374885], [2.3007541439377728, 48.8729918457428], [2.3009241665789792, 48.87295925466869], [2.3010754871513432, 48.87296307916607], [2.3011808517423185, 48.872984963794124], [2.3012649431091434, 48.87301655396789], [2.3014194382751167, 48.87311060962892], [2.301613920637582, 48.87323545445095], [2.30179515724358, 48.873349628322615], [2.3018447659682684, 48.8733688875039], [2.3019224627235855, 48.873383389269655], [2.3020071247526985, 48.873380717287056], [2.302099846376574, 48.87335367598784], [2.302188053164656, 48.87329889775772], [2.302640497431108, 48.87299646669136], [2.3027692592938585, 48.87292120162897], [2.30504989939605, 48.874417799036216], [2.305064701260942, 48.87442673538566], [2.3051770398297005, 48.874428205008186], [2.3052988241245256, 48.87435177894046], [2.3055054966404187, 48.87422776648907], [2.3063564680519404, 48.87371719536909], [2.3063522590527263, 48.87368895683094], [2.3034095263971444, 48.872108768395], [2.3035466738210566, 48.872005140098764], [2.3041487063871946, 48.87234465854308], [2.304760178858159, 48.872169664197656], [2.305396049171234, 48.8719688379729], [2.3086466057842, 48.870941714096716], [2.3098745339647193, 48.87054551467441], [2.3098955394528398, 48.870523308671366], [2.3099022414670465, 48.86973095936077], [2.3099780499780596, 48.86945130180563], [2.309984813930123, 48.869296358496335], [2.3099789667532944, 48.869269918221406], [2.3099649346934727, 48.86925210943816], [2.309702188804147, 48.8688719251178], [2.309664120539361, 48.868846976261004], [2.309481968720703, 48.86875226950345], [2.3088630468820286, 48.86841133469435], [2.3088321135759537, 48.86843197682282], [2.308796845974842, 48.86843950663353], [2.308773442106053, 48.868436397338705], [2.308753724055222, 48.86842736015385], [2.3083569797157635, 48.86822221351481], [2.307348161615667, 48.867704067945624], [2.3067701850527333, 48.867403959800974], [2.3067337521865348, 48.86740422453065], [2.3064248574215696, 48.86724264975457], [2.3063891981064524, 48.867273898665786], [2.306301577946575, 48.867228911854404], [2.3062705006950956, 48.867228094091516], [2.3062226379810227, 48.867253800593176], [2.306285177105217, 48.86760101148219], [2.306594312504646, 48.86918904864049], [2.3063785766000096, 48.86920605983882], [2.3062853345053216, 48.868725556713244], [2.306203680422664, 48.86830492338941], [2.30602544952494, 48.86738666100208], [2.3059473525999956, 48.86736973391639], [2.3051409688947446, 48.86787558366582], [2.303900732689809, 48.86865360349626], [2.3039004425122735, 48.86868103096394], [2.3041716922392896, 48.86885276894887], [2.304474723234425, 48.86902712729444], [2.304492091229545, 48.86903713181334], [2.304533667530877, 48.8690354344103], [2.305086019038857, 48.86861517660763], [2.305216976412173, 48.86867941989686], [2.3046550809874007, 48.869104892098484], [2.3046355776151244, 48.8691196350828], [2.3050844170243985, 48.8693679151371], [2.3053374063711813, 48.86949016935995], [2.305384661088667, 48.86951300457863], [2.3054204785452397, 48.86953027481117], [2.3053169163295624, 48.869627149317886], [2.3052915648630172, 48.86964993907623], [2.3050066812167915, 48.86951407865917], [2.304913983257091, 48.8694698897508], [2.304582612415188, 48.869279619519034], [2.303988003370073, 48.86893821439879], [2.30374088797627, 48.86877990604112], [2.3036993110357162, 48.86877962460325], [2.3032071803121656, 48.8690875340961], [2.3030144412690774, 48.8692081104638], [2.30301781797848, 48.869253253897305], [2.3037855554261646, 48.86964248093752], [2.3035988818267064, 48.86977420667896], [2.303206399405945, 48.86957507018715], [2.30281271475672, 48.86937522656076], [2.302744145516879, 48.86937772392852], [2.3023864680199204, 48.869600629049], [2.302375384448257, 48.86960755955816], [2.302369775484835, 48.86963507561568], [2.30287651467464, 48.87021142984941], [2.3027322217605968, 48.87026197793788], [2.302342221070181, 48.8698186854413], [2.3022485328778517, 48.86971471461008], [2.3022039560601404, 48.86971524076851], [2.301542730566927, 48.870129936664796], [2.3014770563661644, 48.87017113193638], [2.3014753989743704, 48.87019784090649], [2.301810149691164, 48.87044251102067], [2.301959488379131, 48.870560215011515], [2.301992885819576, 48.870598424175725], [2.3015012117899776, 48.87079795255944], [2.3011870979766553, 48.87093668664667], [2.3005783607761363, 48.87120583036541], [2.299938679035323, 48.87146839564413], [2.2988917379970246, 48.87179781771812], [2.298883947159862, 48.87182623182541], [2.299258643116116, 48.87208309856667], [2.299080042329572, 48.872134563748254], [2.298690201963091, 48.87186105979786], [2.2982768775736764, 48.871992088374256], [2.296893701115519, 48.87243116675621], [2.2965928591042224, 48.87252679367743], [2.2965573601841314, 48.87259431823101]]], "type": "Polygon"}, "properties": {"nom": "Piétonnisation des Champs-Elysées", "arrdt": "8e", "type_secteurs": "1er dimanche du mois", "jours": "05", "horaires_annee": "de 10h à 17h", "periode_estivale": "début avril - fin octobre", "horaires_ete": "11h à 18h", "autorises": "04", "superficie": 316361, "lineaire_voie": 3418, "dates_specifiques": null, "geo_point_2d": {"lon": 2.304257333161268, "lat": 48.870904801512616}, "url": null}}, {"type": "Feature", "geometry": {"coordinates": [[[2.3616525395897123, 48.87324787825959], [2.361677486147179, 48.87318616030377], [2.3633840475588923, 48.87317360152358], [2.363448715713508, 48.87306596927031], [2.363350144444728, 48.8727649460155], [2.3634392202839685, 48.872727030648264], [2.363513411284723, 48.872781019358044], [2.3636505602805, 48.87287410684831], [2.3638196640521407, 48.87298829876811], [2.363952949248093, 48.87307556103448], [2.364140824715893, 48.87319749208073], [2.3641393656105922, 48.87319908065233], [2.364138488372748, 48.87319890601782], [2.364252804712836, 48.87328684239131], [2.3643047684902205, 48.87332210615014], [2.3648152433978558, 48.873682294983155], [2.366473862607986, 48.87271083503025], [2.3664802316658498, 48.872646985249446], [2.365426529443537, 48.87186551774235], [2.364746507905836, 48.871677711079904], [2.3650055157596137, 48.8713443842068], [2.3653081612769813, 48.87095163138188], [2.3653483951947853, 48.87089970827492], [2.365383554863857, 48.870854383675216], [2.365472072447391, 48.870740701727215], [2.3662252617652753, 48.86976965960683], [2.3660607217269614, 48.8697876698845], [2.3658297535171773, 48.86971003221691], [2.3658270303433935, 48.86971345056666], [2.3655329353277357, 48.86961442519992], [2.3655353863822097, 48.869611187979935], [2.3650700454247655, 48.869454472004136], [2.365067320595194, 48.86945779949552], [2.3644132830437785, 48.869233772381506], [2.3642541541023294, 48.86914918974207], [2.3638629909503095, 48.86901664059091], [2.3637477801252103, 48.86897206397608], [2.363641425306615, 48.86892011207823], [2.363651097242384, 48.868908868687704], [2.3633605409609024, 48.86878034123193], [2.363272093451874, 48.86882271801248], [2.3630624609313453, 48.86886242458829], [2.362954085493514, 48.868854266381526], [2.3613494358679663, 48.87064580358875], [2.3612395575634335, 48.87067075669602], [2.3612649043179053, 48.870703528066066], [2.361356225911372, 48.870832317725636], [2.361358746750237, 48.8708546599582], [2.3613508497784106, 48.87086950727566], [2.3613391423871604, 48.87088401949274], [2.3608706596676265, 48.87122587925957], [2.3608332516664814, 48.87125321545709], [2.360789042730482, 48.87127505274232], [2.3607623069800514, 48.87128170176819], [2.360728942367497, 48.87128505258534], [2.36070503806903, 48.87128438171606], [2.3606662573267716, 48.871267935229724], [2.3604921597553603, 48.87160614299628], [2.3611547597380955, 48.87259016801285], [2.3612116494034874, 48.87267477729963], [2.361500462911991, 48.87310474711234], [2.3616525395897123, 48.87324787825959]]], "type": "Polygon"}, "properties": {"nom": "Saint-Martin (extension sud)", "arrdt": "10e", "type_secteurs": "Estival", "jours": "01", "horaires_annee": null, "periode_estivale": "juillet-août (dates réactualisées)", "horaires_ete": "de 10h à 20h", "autorises": "05", "superficie": 143342, "lineaire_voie": 2997, "dates_specifiques": null, "geo_point_2d": {"lon": 2.3634962123016092, "lat": 48.87132996219929}, "url": "https://cdn.paris.fr/paris/2019/07/24/e49ac2c44d9c52ed7869791294a7baa3.pdf"}}, {"type": "Feature", "geometry": {"coordinates": [[[2.376875030398524, 48.890414534162815], [2.3769159416576353, 48.89041433965869], [2.377053869341952, 48.89030948055217], [2.37731091282657, 48.89011384092169], [2.3774469189463003, 48.88999652653651], [2.3775096066364343, 48.88994263773273], [2.377711159495967, 48.88976648749405], [2.3778154095118427, 48.88967517339438], [2.377935672427861, 48.88956973489925], [2.3780559335038474, 48.88946429536687], [2.3782523037648895, 48.889292192968774], [2.378325617471482, 48.889226788207274], [2.3784389954533944, 48.88912773638823], [2.378565525878802, 48.88905114404255], [2.3786547958438478, 48.88897229876823], [2.3787789650479656, 48.888862999969014], [2.378920502845514, 48.888745456202486], [2.3798581718792553, 48.88794399503673], [2.379936878406334, 48.8878407637473], [2.3800247703305417, 48.88776483125189], [2.3810563911866867, 48.88684150708122], [2.3811896522132816, 48.88672481880841], [2.381955574987573, 48.88607874686551], [2.381993181593154, 48.886045549062196], [2.3819827957613042, 48.88602118221734], [2.3800582792984724, 48.88551627076638], [2.3798852000286836, 48.88547371144366], [2.3788177972391344, 48.885190570137055], [2.376937671831559, 48.884697370187546], [2.3766996734990538, 48.88463387558104], [2.3751550965006305, 48.88422847620594], [2.37095888450377, 48.88312659000948], [2.3706247152837725, 48.8829969331922], [2.3702772530883873, 48.88289936277687], [2.370254421097907, 48.88289944143609], [2.3701411277669773, 48.882956596720994], [2.3700869669667277, 48.88297874191746], [2.3700250263765885, 48.88300406754656], [2.369917669335868, 48.88303488645467], [2.3698010063512354, 48.8830710396605], [2.3696442733161964, 48.88313196332292], [2.369553378568933, 48.883178121178034], [2.3694760483096777, 48.88322399876251], [2.369388120994411, 48.88328880888906], [2.3693314440470843, 48.88333163761867], [2.3692723278795054, 48.883385691470494], [2.3692119510232716, 48.88344879847692], [2.369153805844188, 48.88352094735827], [2.3691318131019456, 48.88355179442831], [2.3691106382371774, 48.88358288952109], [2.3690855144995124, 48.88363388660515], [2.369059675309073, 48.88370408774961], [2.369051954664502, 48.88373253955826], [2.369039825048191, 48.88381121265815], [2.3690367148725193, 48.88386959949123], [2.3690382421253973, 48.88392801255904], [2.369044464601618, 48.88398078280643], [2.3690516647107334, 48.88401217849507], [2.3690695233464125, 48.88407180357527], [2.36909753995303, 48.884140987165914], [2.369162681497365, 48.88425051501916], [2.3692168225635464, 48.884326281690484], [2.3694366265125706, 48.88439357871675], [2.3707310766198115, 48.88543396152588], [2.371029759899643, 48.88567592343597], [2.3711670155736178, 48.88578577395952], [2.372519835843371, 48.88688957398022], [2.3729778845510876, 48.88726460682761], [2.373038739220628, 48.887313687751444], [2.373626973055666, 48.88780081496272], [2.3737321759552423, 48.887886122024106], [2.374197885647252, 48.888267081309074], [2.3743631290718548, 48.88840137832175], [2.3745438155618186, 48.88857856533093], [2.3746733110985834, 48.88868571612942], [2.3760123338230086, 48.889733455018614], [2.376154113830178, 48.889845814906415], [2.376875030398524, 48.890414534162815]]], "type": "Polygon"}, "properties": {"nom": "Bassin de la Villette", "arrdt": "19e", "type_secteurs": "Toute l’année", "jours": "01", "horaires_annee": "de 14h à 18h", "periode_estivale": "avril-septembre", "horaires_ete": "de 14h à 20h", "autorises": "05", "superficie": 348317, "lineaire_voie": 5053, "dates_specifiques": null, "geo_point_2d": {"lon": 2.375483793573201, "lat": 48.88632319430526}, "url": null}}, {"type": "Feature", "geometry": {"coordinates": [[[[2.3481455944580545, 48.844668680716], [2.3490600252928124, 48.84491633343266], [2.3496616114974604, 48.84507867425767], [2.3497132436980137, 48.8450529490077], [2.34968842566109, 48.84497381605223], [2.349603508933977, 48.84484163223715], [2.3496246091087722, 48.8447702270678], [2.349570896772411, 48.844651259869885], [2.3494884690223565, 48.844439601220195], [2.349579118106432, 48.844296584813726], [2.349667134892089, 48.84429513598282], [2.3498190483484507, 48.844281359672564], [2.3498209552850984, 48.84428108943568], [2.3498176833935083, 48.844273356032495], [2.3500997067989755, 48.84423357449156], [2.3503870370787925, 48.84416690411708], [2.3503878468826724, 48.84413866676782], [2.3513939743316077, 48.84391443979286], [2.3514077421376736, 48.843938629016534], [2.35147109318994, 48.843923872184014], [2.351492341296113, 48.84390111750617], [2.3514805737529487, 48.84384791044297], [2.3514593258738032, 48.843751842369464], [2.351435483439015, 48.84375598238261], [2.3514215647162287, 48.843683592850404], [2.3514024822029245, 48.84365212055652], [2.351372169209177, 48.84342631622337], [2.351350474461302, 48.84331669768054], [2.3513214154308946, 48.84317902316246], [2.3514432058587196, 48.84219529079161], [2.351416359269404, 48.842174610986866], [2.350942909094056, 48.84214841327833], [2.351002986760876, 48.84164409216731], [2.3509772304240872, 48.8416233219343], [2.3508080579109376, 48.84160873905167], [2.350734533830536, 48.841435494054465], [2.3506664700733184, 48.84114674545544], [2.3505265271035882, 48.84055306201608], [2.350496518857527, 48.84042177176701], [2.3504534186005905, 48.84024291136783], [2.3505006383674605, 48.84018598885983], [2.35081295291099, 48.840255636575414], [2.3510707532876607, 48.83991324965097], [2.3510478531967816, 48.839869638434685], [2.3502005041573986, 48.83950913461206], [2.3497972239114895, 48.83941529793041], [2.3495988361065994, 48.839300393944384], [2.349584670060697, 48.839308938236165], [2.3492812305282254, 48.8391275893305], [2.3492403583419224, 48.83912480559016], [2.347640557625401, 48.83975698392125], [2.347542085025883, 48.83987713626449], [2.347666070424328, 48.839927123747685], [2.348361884619866, 48.84016688977417], [2.3489600138463915, 48.84036232820309], [2.349050340364366, 48.8403665449339], [2.3489570425837973, 48.840469522581124], [2.3489225773912965, 48.84048472402679], [2.3488734189490605, 48.8405824799907], [2.3488938547781104, 48.84058535587028], [2.3488516411052403, 48.84066728393075], [2.348815281926569, 48.840736352353005], [2.348666846288715, 48.841012985499674], [2.348636741950032, 48.84103583001444], [2.3485425067025942, 48.84121866210583], [2.348560627621235, 48.84121991916882], [2.3484161410778954, 48.84150392570321], [2.3483189311973454, 48.84178918605002], [2.3482882829540896, 48.84181679682599], [2.3482764066607333, 48.84231751378512], [2.3482556967409955, 48.842316346903345], [2.348255199080244, 48.842523179693316], [2.3482760449184843, 48.842524707060136], [2.3482657550307384, 48.842808428742266], [2.34823866042393, 48.84289035516496], [2.3482151353669645, 48.843092155467744], [2.3482391148007844, 48.84309449045157], [2.3482174973848435, 48.84329530102065], [2.3481946075197806, 48.84329332541935], [2.34818550130124, 48.84339116688841], [2.348179384877482, 48.843455645711785], [2.348160481347917, 48.84365863665819], [2.348146368318039, 48.843862301208866], [2.348137177192607, 48.84416464261913], [2.3481306774417314, 48.84437327076552], [2.348124577029975, 48.844510859601044], [2.3481207913314806, 48.844643682726186], [2.3481455944580545, 48.844668680716]]], [[[2.347487147990415, 48.84877195562554], [2.3475235311524196, 48.84878373328113], [2.348400043170381, 48.84854830423889], [2.348423611194195, 48.84852608984151], [2.3484265872350725, 48.84843193516294], [2.348440621956571, 48.848428876433026], [2.3484329675498845, 48.84832501104167], [2.3484368648257736, 48.84826518267349], [2.348443678074329, 48.84818150301111], [2.348458526659203, 48.84807824759762], [2.3484676520745484, 48.848013556076104], [2.348480430123183, 48.84792581769378], [2.348480555153502, 48.84787581493854], [2.3484704990610443, 48.84770038793904], [2.3484554258429755, 48.84760276230222], [2.348434420524717, 48.847533828970995], [2.3484251561247986, 48.847536617792116], [2.3484190158754763, 48.84750064776981], [2.3483953078879947, 48.8475058662373], [2.348382482121425, 48.84742817001696], [2.3482846285549077, 48.84733402633804], [2.348144804288017, 48.847226397345494], [2.348030084533858, 48.84721991111573], [2.347978092332507, 48.84722189236101], [2.3478886447367415, 48.84723415686052], [2.3477834595850373, 48.84726132511939], [2.34742155329889, 48.84736075617206], [2.347195818160246, 48.84742505018248], [2.347122494101731, 48.847442044576894], [2.347062349753323, 48.847455031363154], [2.346983985043444, 48.847471152765614], [2.3468809417426435, 48.847492614695646], [2.3468862613674584, 48.84751536604126], [2.3468767241220263, 48.84752534902492], [2.347487147990415, 48.84877195562554]]], [[[2.3437095280864146, 48.850330791287966], [2.3430289164610265, 48.85059054245412], [2.343016246409565, 48.85061932065487], [2.3432898060275504, 48.8511976275182], [2.3433300057449196, 48.85120886616852], [2.344785831912815, 48.85085382574024], [2.3453308745212365, 48.85071709511686], [2.345153128942907, 48.850389143300866], [2.34516784493769, 48.85038365682409], [2.3451428941010932, 48.85029364123433], [2.3450367245105683, 48.85017278638474], [2.3448069144541672, 48.8497424106335], [2.3447445036144248, 48.849723620328525], [2.344433698530793, 48.849808174224385], [2.3438456076972267, 48.84996603618665], [2.3438302125918895, 48.849991037530266], [2.343958190498831, 48.85017582965424], [2.3440496291331834, 48.85021557174312], [2.3437095280864146, 48.850330791287966]]], [[[2.3472697289530156, 48.84638835977604], [2.3474290037544248, 48.846360197322376], [2.348995323187564, 48.84611444388846], [2.349162913037863, 48.8461079503846], [2.3495487664756145, 48.84604675639601], [2.349545628966026, 48.846028141473106], [2.350037208713688, 48.84594822851997], [2.350050021566261, 48.84596594267258], [2.350096481483163, 48.845958383226545], [2.3500821710505955, 48.84594066993691], [2.3504283748226724, 48.84588469254563], [2.350441176014763, 48.84585951161835], [2.3504047429375023, 48.84582692514806], [2.3503656968641575, 48.845792001429594], [2.350334773246243, 48.84576005641717], [2.3502701536326387, 48.84568771081334], [2.3500803863021367, 48.84547462439173], [2.3499821692760845, 48.845364331941525], [2.349871205710586, 48.84523979980476], [2.349224924051283, 48.84506469514872], [2.3490954789383682, 48.84503278581286], [2.347559846153801, 48.84461613162161], [2.3467346252742476, 48.84482376152878], [2.3472697289530156, 48.84638835977604]]], [[[2.3486206349843126, 48.84848910903968], [2.349214007843379, 48.84833221101483], [2.3492281722726283, 48.84830217305319], [2.3490610767923803, 48.848130519986974], [2.349091186045615, 48.848118287045025], [2.3491527690462064, 48.8480888739961], [2.349180153113948, 48.84807367271375], [2.349394399126818, 48.84826384529935], [2.3494351422004396, 48.84827121494982], [2.3503251249375694, 48.84803217295829], [2.3504000548157715, 48.847987020126624], [2.351088320723694, 48.84710717399301], [2.3510817724692683, 48.84708073599468], [2.350920958400673, 48.84696475017634], [2.351021089539881, 48.84690313687317], [2.3511803955822734, 48.846987018959474], [2.3514349626555813, 48.846660009946596], [2.3514210434606504, 48.846586720345854], [2.3513690672772385, 48.846549924571924], [2.3511234036615734, 48.84637659891891], [2.3505814207535187, 48.84600904331206], [2.350477863198868, 48.84598990215194], [2.34926389582288, 48.846183658307204], [2.347525765339634, 48.84646009714531], [2.3475438949195873, 48.84649552646832], [2.3475246850449962, 48.84650524091362], [2.3475182840097437, 48.84652106891116], [2.3475391400587453, 48.84656468108745], [2.3475294696722226, 48.84658194821759], [2.3475357441693356, 48.84661018545738], [2.3475677690138643, 48.8466332029421], [2.347591069407912, 48.846637877168476], [2.3476224177278953, 48.84668391725299], [2.347630184669664, 48.84668742393858], [2.3476523953187005, 48.84669119824695], [2.3476777385138017, 48.8466866093985], [2.3477239395738443, 48.84673813378921], [2.3477312991562256, 48.84674424818844], [2.3477518774327293, 48.846763040976846], [2.3477912555976332, 48.84676906191901], [2.3478319946841104, 48.8467615036424], [2.347852565044259, 48.84674423565013], [2.347854059643293, 48.84672400191174], [2.3479821101221225, 48.84670798794602], [2.348141921182624, 48.847130175388116], [2.348204748562179, 48.84716290361342], [2.348243581466323, 48.8471831322061], [2.3482819383035753, 48.847216478043244], [2.34831308592408, 48.84724355563668], [2.348622724315282, 48.84751465473533], [2.348613488095076, 48.84776996927064], [2.348602172180944, 48.848086233635556], [2.3485934503756978, 48.84833024950514], [2.348588474260877, 48.84847454421067], [2.3486206349843126, 48.84848910903968]]], [[[2.344938496640013, 48.84944069427647], [2.3449489905042036, 48.84945310350833], [2.34496261838021, 48.8494601166639], [2.3449732474996763, 48.849462633700114], [2.344988100566007, 48.849463352660884], [2.3455812241907052, 48.84930539387452], [2.345733150000386, 48.849264644763466], [2.346215356418418, 48.84913510840107], [2.3462586853509717, 48.84912125582209], [2.346686389910093, 48.8490086298557], [2.3473183348429165, 48.84883896782884], [2.3473354981102075, 48.848813966673504], [2.3472404847378976, 48.84862009175286], [2.347219093215927, 48.84862755752873], [2.346977961172907, 48.84819242179059], [2.3469378887353027, 48.8481329830042], [2.3469707126766197, 48.848060858239606], [2.3463879777692362, 48.84684365194068], [2.3450475434049163, 48.84713827322095], [2.3450509509643958, 48.847144928248916], [2.3445815633673117, 48.8472456806388], [2.3438397997827454, 48.84736956121977], [2.3438195007507714, 48.84739069545591], [2.344938496640013, 48.84944069427647]]]], "type": "MultiPolygon"}, "properties": {"nom": "Mouffetard", "arrdt": "5e", "type_secteurs": "Toute l’année", "jours": "01", "horaires_annee": "de 10h à 18h", "periode_estivale": null, "horaires_ete": null, "autorises": "02", "superficie": 266241, "lineaire_voie": 3224, "dates_specifiques": null, "geo_point_2d": {"lon": 2.348342920116196, "lat": 48.84520949084656}, "url": "https://cdn.paris.fr/paris/2019/07/24/39baa89b2b84fbca5082a20152979188.pdf"}}, {"type": "Feature", "geometry": {"coordinates": [[[2.3431125394422927, 48.87131855149357], [2.3440206992533645, 48.87117245271518], [2.344019744826831, 48.871169754860304], [2.344418749404401, 48.87110426104086], [2.3444198402087224, 48.871107498344244], [2.3447908991281574, 48.87104641077762], [2.344789399506291, 48.871042724267625], [2.3450418606736836, 48.87100016959419], [2.3450436332305977, 48.87100448623327], [2.3450959792722927, 48.870995669528654], [2.345095706321061, 48.87099449979235], [2.345796242346026, 48.87087771923655], [2.3466058279057678, 48.870739791062256], [2.346712973874143, 48.87072827078248], [2.3469246725379045, 48.870689582555464], [2.3469256279468547, 48.87069156092074], [2.347026365647398, 48.87067410572451], [2.347025955107181, 48.870669879283845], [2.3477791007265427, 48.87054858513922], [2.3480233780022277, 48.87050836284198], [2.3486445607991273, 48.870384198561275], [2.3487129886942437, 48.87036368733095], [2.3490045618727953, 48.870300706252706], [2.3491369210687782, 48.870272005034344], [2.349660770208684, 48.870162504124984], [2.349784403982963, 48.87013596086453], [2.3513221280799685, 48.86980924430925], [2.351657729530337, 48.86975956009329], [2.3517750929325008, 48.86974003074337], [2.351950787901778, 48.869674269944824], [2.3524093315697674, 48.86957690514718], [2.3527006209907397, 48.8695086092225], [2.3539538287366786, 48.86922713054578], [2.353972767914934, 48.86920266727673], [2.353877970780031, 48.86903253899676], [2.353802815207084, 48.86890071706633], [2.353725068881234, 48.868760621532964], [2.353666417813926, 48.868656135038535], [2.35330497137224, 48.86800996993622], [2.3528199642844743, 48.86714367860934], [2.3527434510166, 48.86700691012737], [2.3523947105399454, 48.86637872571838], [2.3523596742206654, 48.86636587158398], [2.352198295685443, 48.86639988644672], [2.3519841689468017, 48.86644919572936], [2.351319838993777, 48.86659163953333], [2.351046554247913, 48.866649857354396], [2.3496405972971837, 48.86695650126563], [2.3493532704269526, 48.86701930381031], [2.3474624547726033, 48.86742822159102], [2.3472176483166067, 48.86748013314827], [2.346713860458034, 48.86758809261146], [2.34589847293723, 48.86776729854232], [2.345577877287908, 48.86783647900656], [2.3436816825266567, 48.86824461607667], [2.3434644610953614, 48.8687395001815], [2.342966360613426, 48.869836105189435], [2.3428608639764694, 48.869958053192036], [2.342811416379943, 48.87026147120333], [2.3428029703547373, 48.87031812647717], [2.3431125394422927, 48.87131855149357]]], "type": "Polygon"}, "properties": {"nom": "Sentier", "arrdt": "2e", "type_secteurs": "Toute l’année", "jours": "01", "horaires_annee": "de 10h à 18h", "periode_estivale": "avril-septembre (sauf 1er dimanche du mois)", "horaires_ete": "de 10h à 19h", "autorises": "01", "superficie": 258374, "lineaire_voie": 6899, "dates_specifiques": null, "geo_point_2d": {"lon": 2.348232012649532, "lat": 48.86889520336597}, "url": "https://cdn.paris.fr/paris/2019/07/24/ea69bb0f08b9dfe1279c81685c928e81.pdf"}}, {"type": "Feature", "geometry": {"coordinates": [[[2.3606455125423373, 48.86325843986462], [2.3610208172014624, 48.863591304227256], [2.361545479079193, 48.863248970862884], [2.361632196587569, 48.86323165250161], [2.361983773497728, 48.863052913665996], [2.3624370980969194, 48.862825451543145], [2.360076876187494, 48.86079363337178], [2.3596511782259535, 48.86043855315284], [2.3598028593497804, 48.860363872569664], [2.360334751524679, 48.86007765215386], [2.3603352969314444, 48.860078191080355], [2.360353010657138, 48.860070094505005], [2.360352054759104, 48.86006568798851], [2.3603536896951174, 48.86006307962587], [2.360390070628621, 48.86004382748581], [2.360391296444652, 48.86004256865543], [2.3603974285132105, 48.860040139015965], [2.3604062877058314, 48.86004139598799], [2.3604163710543444, 48.86003608886829], [2.3604152794171047, 48.86003518908244], [2.3604207301675886, 48.860031411275706], [2.3606121710123182, 48.85992840404132], [2.360692007279735, 48.85986417916556], [2.361013034030738, 48.85999099750149], [2.3617316262314194, 48.86039281691396], [2.361820794893695, 48.86045997276152], [2.3628324384765915, 48.859825305964705], [2.3629059393582277, 48.85979317598159], [2.362988632178226, 48.85983318298712], [2.363637225767753, 48.85965146707603], [2.3644437239837157, 48.859425644168624], [2.3644160332053614, 48.85888923299708], [2.3644124895448386, 48.858887436164366], [2.3643829508421392, 48.85820894029919], [2.3643764763914588, 48.85808529131789], [2.364374911478684, 48.85796397972713], [2.364368501137337, 48.85770894694856], [2.3643607333817425, 48.857708409247], [2.3643488581827454, 48.85742864764855], [2.3643253989525297, 48.85687656969975], [2.364328381682384, 48.85686903370421], [2.3643135361892726, 48.856639722237645], [2.3642338828527953, 48.85652184754314], [2.3641888759312812, 48.85645809990167], [2.364103801648041, 48.85633127473965], [2.3640582258010054, 48.856263246702824], [2.3640185816873522, 48.85619911108155], [2.363949226627081, 48.85608468862345], [2.3638620662495726, 48.85594262434736], [2.363847347999053, 48.855943976968206], [2.3635763518146162, 48.85555456591517], [2.3635291649740773, 48.85549189727988], [2.3632573704755684, 48.855131172181146], [2.3632081387726265, 48.85506481776015], [2.3629550344478987, 48.85473313421234], [2.3629070429194057, 48.854690699105326], [2.3628936868881647, 48.85468845425982], [2.3625965353439295, 48.854822604586175], [2.3625940820341613, 48.85482116604529], [2.362534542277755, 48.85484707935724], [2.362436443880916, 48.85489035602999], [2.361994453358204, 48.85507579648826], [2.361999362421864, 48.85508325940029], [2.361850445425583, 48.855152986150564], [2.361620429372656, 48.855194763520565], [2.3612542905783065, 48.855280724805496], [2.361043356017371, 48.85533023032264], [2.3602284985053315, 48.855523747148], [2.3600369119695235, 48.85557162848021], [2.359135519754547, 48.85578709675055], [2.358926624900525, 48.855836868472764], [2.3581287861619264, 48.856026319760744], [2.357918252532729, 48.85607608902581], [2.3572852897449987, 48.856227105043594], [2.3571014643273145, 48.85627030356581], [2.356788864794258, 48.85634535898909], [2.356519188754662, 48.85640934497998], [2.3557556712262273, 48.85659130972485], [2.355327920402611, 48.85669533805203], [2.355133461714991, 48.85674033342327], [2.3549490861685403, 48.85678352837181], [2.351658235442705, 48.85757958215793], [2.3519815995853857, 48.858231294949405], [2.352209077367303, 48.858643467326836], [2.3525972102269472, 48.859344836950406], [2.352829410289856, 48.85975684886292], [2.35307784125616, 48.86025236153768], [2.3533647178182493, 48.860786056148896], [2.353822550162968, 48.861524732145114], [2.354283586152872, 48.86248492131247], [2.35494611662103, 48.863650509043154], [2.3552225428159197, 48.86416682055389], [2.3554254986977456, 48.86416321383309], [2.3562700344006133, 48.86391843761757], [2.3572251908880077, 48.86364562435648], [2.3581061199493476, 48.863363313883205], [2.3582866231520105, 48.863321330052045], [2.3587417345606023, 48.8638000391764], [2.3589957700694146, 48.86409799671165], [2.3593898812389673, 48.86388072891295], [2.3597526085946874, 48.863699971675715], [2.360022298175395, 48.86355862067106], [2.3606455125423373, 48.86325843986462]]], "type": "Polygon"}, "properties": {"nom": "MARAIS", "arrdt": "3e et 4e", "type_secteurs": "Toute l’année", "jours": "01", "horaires_annee": "de 10h à 18h", "periode_estivale": "avril-septembre (sauf 1er dimanche du mois)", "horaires_ete": "de 10h à 19h30", "autorises": "01", "superficie": 327246, "lineaire_voie": 11512, "dates_specifiques": null, "geo_point_2d": {"lon": 2.3583698191326405, "lat": 48.85936245470555}, "url": "https://cdn.paris.fr/paris/2019/07/24/5632de2c642963c31f664000fd10bf92.pdf"}}, {"type": "Feature", "geometry": {"coordinates": [[[2.34662327130304, 48.82640831561346], [2.3466211370013355, 48.82640927977564], [2.346623162122166, 48.82640996267382], [2.3470459169881788, 48.82731254303993], [2.3473306662751643, 48.82795858679685], [2.3476872851189095, 48.828712436438], [2.3477587447858306, 48.828852464789854], [2.348287334217367, 48.82951594713791], [2.348516030264562, 48.82944200282946], [2.348940547985918, 48.8293207874323], [2.3492422484921787, 48.82926335140884], [2.349730227992857, 48.82927137671163], [2.3501683329930496, 48.82936506056302], [2.3507273808235687, 48.829545330942295], [2.3527205176713175, 48.83018988130986], [2.3527242517620888, 48.829889140552496], [2.3527597227681487, 48.8289977903558], [2.352664783109538, 48.82812721787862], [2.3503045933170092, 48.82587557499206], [2.3481058923172724, 48.82577902067278], [2.34662327130304, 48.82640831561346]]], "type": "Polygon"}, "properties": {"nom": "Butte Aux Cailles", "arrdt": "13", "type_secteurs": "Estival", "jours": "01", "horaires_annee": null, "periode_estivale": "1er dimanche d'avril à dernier dim. de septembre", "horaires_ete": "10h - 20h", "autorises": "05", "superficie": null, "lineaire_voie": 3179, "dates_specifiques": null, "geo_point_2d": {"lon": 2.3497971557340103, "lat": 48.827824114963924}, "url": null}}, {"type": "Feature", "geometry": {"coordinates": [[[2.3881471467762854, 48.87389021607137], [2.388095373368473, 48.873920544964676], [2.3880075542676926, 48.87403191558375], [2.3879627259322533, 48.8741882298069], [2.3878788690363724, 48.87444105334819], [2.387829162917979, 48.87462893430419], [2.3882354515075734, 48.874648894605805], [2.388397723538708, 48.874684162865385], [2.388499995654557, 48.874706507671696], [2.388592732125253, 48.87473641114494], [2.388700752347576, 48.874779797154844], [2.388851607027894, 48.87484942216227], [2.388909849011446, 48.87487637302933], [2.3890121242791604, 48.87490105657228], [2.389204180626057, 48.87499683087041], [2.389695783880337, 48.875241925148124], [2.3897560699471483, 48.87526752621991], [2.3902871879390024, 48.87536071172652], [2.390484206440696, 48.87537626625057], [2.3906176883792116, 48.8753868142032], [2.3916941972754073, 48.87540320463667], [2.39172746431435, 48.87540381885154], [2.391947765928952, 48.875391391431464], [2.3921140720824425, 48.87537323497371], [2.3922106825687237, 48.87532777504772], [2.392286638743093, 48.875221533132994], [2.392457335337547, 48.87498332193341], [2.3927949069677967, 48.87450824807337], [2.392892365133276, 48.87437034133859], [2.3931605094361905, 48.87399206367376], [2.393463360451157, 48.87356655548818], [2.393532641378617, 48.87346832065763], [2.393741976969029, 48.873173252916004], [2.394039099031899, 48.87275350210573], [2.393180234670161, 48.8722632875194], [2.393138654898873, 48.8722627682512], [2.3926788769642475, 48.87250386017696], [2.39257269901138, 48.87244443118769], [2.391957482543094, 48.87209356544165], [2.3918895961951634, 48.872096656036696], [2.391277834189476, 48.87256093804897], [2.3901982247807187, 48.87338001031956], [2.3900692484097186, 48.87349265220794], [2.389673554435119, 48.87377325462889], [2.389599105058182, 48.873826380878604], [2.38952581059643, 48.87447563797897], [2.389390601453817, 48.874455752091954], [2.3894275245452588, 48.87388146956206], [2.389351447783914, 48.87383090496384], [2.3881471467762854, 48.87389021607137]]], "type": "Polygon"}, "properties": {"nom": "Jourdain Levert", "arrdt": "20e", "type_secteurs": "Toute l’année", "jours": "01", "horaires_annee": "de 10h à 18h", "periode_estivale": null, "horaires_ete": null, "autorises": "05", "superficie": 90448, "lineaire_voie": 873, "dates_specifiques": null, "geo_point_2d": {"lon": 2.391238812728668, "lat": 48.87392911435287}, "url": "https://cdn.paris.fr/paris/2019/07/24/a6400ef9e5078c0c79046a5454496f6a.pdf"}}, {"type": "Feature", "geometry": {"coordinates": [[[2.3497072689096297, 48.89047752233971], [2.349707937037144, 48.89046290116443], [2.349713160631897, 48.89146610589799], [2.349769898571122, 48.89148789523212], [2.3499738967764734, 48.89145678004508], [2.353422938133993, 48.890809519780085], [2.3551820858719776, 48.89048201127732], [2.355729573494612, 48.890334585995085], [2.355982342764308, 48.89031043553277], [2.3563333669383937, 48.890316351012316], [2.357400617540867, 48.890287175025485], [2.3582195186567585, 48.89025397424257], [2.3582645734630665, 48.8902327335792], [2.3582067538748874, 48.88930736596278], [2.3581835817117875, 48.88904006247009], [2.3581529765809943, 48.888880128070156], [2.359360274355062, 48.88899113187273], [2.3597222784664535, 48.88902394823369], [2.3597959248374285, 48.88899547551192], [2.3597956493661223, 48.88868667398763], [2.35978408385826, 48.888302625776], [2.3597664988149334, 48.8880769730131], [2.3596919325889876, 48.88751804755554], [2.359633636985458, 48.88715486337444], [2.3594856547067318, 48.88660628528664], [2.3593465788148738, 48.88599599492917], [2.3592412717187825, 48.88545878872455], [2.3592240126521733, 48.884876001542246], [2.3591940713805344, 48.8848275069398], [2.357063103954981, 48.88494765896039], [2.356598963825545, 48.884945165680854], [2.355751412371296, 48.8849969986872], [2.3554498614458828, 48.88501685705346], [2.355161057257391, 48.88499382062692], [2.354428102500533, 48.88499792613821], [2.3531043603203905, 48.88503374494206], [2.352735813381724, 48.885038466620166], [2.3524709213626407, 48.88505717296706], [2.3523405347864865, 48.885064523915496], [2.3521515153745156, 48.88503933365826], [2.3515182910618453, 48.88505873061635], [2.3510432850892555, 48.88511120392572], [2.35076168831573, 48.88516338247258], [2.3496693558572583, 48.885280733319036], [2.3496190536133623, 48.8853146975053], [2.3497072689096297, 48.89047752233971]]], "type": "Polygon"}, "properties": {"nom": "CHATEAU ROUGE", "arrdt": "18", "type_secteurs": "Toute l’année", "jours": "10", "horaires_annee": "de 11h à 18h", "periode_estivale": null, "horaires_ete": null, "autorises": "05", "superficie": null, "lineaire_voie": 7874, "dates_specifiques": null, "geo_point_2d": {"lon": 2.354315789327948, "lat": 48.88782007541105}, "url": null}}, {"type": "Feature", "geometry": {"coordinates": [[[2.339912575504691, 48.881836793153795], [2.3402752749282882, 48.88191375973443], [2.340508711966528, 48.88195970485972], [2.3410564446247544, 48.882066248235255], [2.341246250858996, 48.8821047292304], [2.3419452049757017, 48.88224102836949], [2.3421011950642847, 48.882271955700304], [2.3439211417383894, 48.88262850351218], [2.3444281706831696, 48.88270373818649], [2.34455065728462, 48.882436258066086], [2.3444984698928257, 48.88242678298293], [2.3447909032713032, 48.88177741459416], [2.3452366844673036, 48.881827515270096], [2.346283355367997, 48.882032015003126], [2.346488921135442, 48.881939488125084], [2.3464946059323846, 48.88193340550284], [2.3464949591276563, 48.88192634048701], [2.3464803338459412, 48.881770579235074], [2.346288517759761, 48.880473751423615], [2.3461261619876916, 48.88008189888053], [2.3460893454066993, 48.87999302448817], [2.3460581257429904, 48.87991765894962], [2.3459437024440986, 48.879758406846605], [2.3456682184849673, 48.87938118348197], [2.345265773579517, 48.878827351776536], [2.345236595168181, 48.878818721368795], [2.3432868086893675, 48.87925967876331], [2.3431161103810623, 48.87929988677357], [2.3403577715538617, 48.87995531614823], [2.3405469102606205, 48.88032401182287], [2.34027097897892, 48.88085648210843], [2.339977183602492, 48.881456488220365], [2.3400164528352816, 48.88146718821876], [2.339861848309762, 48.88177204755559], [2.339912575504691, 48.881836793153795]]], "type": "Polygon"}, "properties": {"nom": "Trudaine", "arrdt": "9e", "type_secteurs": "Toute l’année", "jours": "01", "horaires_annee": "de 14h à 18h", "periode_estivale": null, "horaires_ete": null, "autorises": "01", "superficie": 139035, "lineaire_voie": 2710, "dates_specifiques": null, "geo_point_2d": {"lon": 2.343382668369846, "lat": 48.88082138740553}, "url": "https://cdn.paris.fr/paris/2019/07/24/06fd3d7737671006a49a6d94fc9b7fef.pdf"}}]}